ONEWEB-0275             
1 48993U 21060AC  26188.06463240 -.00000010  00000+0 -59659-4 0  9992
2 48993  87.9081 224.8279 0001973  96.1703 263.9653 13.16595199242177
ONEWEB-0276             
1 48994U 21060AD  26188.17388208  .00000114  00000+0  26550-3 0  9991
2 48994  87.9082 224.8052 0001902  93.3517 266.7831 13.16593410242209
ONEWEB-0277             
1 48995U 21060AE  26188.03456418  .00000064  00000+0  13282-3 0  9998
2 48995  87.9078 224.8406 0002083  99.5011 260.6355 13.16594865242171
ONEWEB-0278             
1 48996U 21060AF  26188.10105244  .00000077  00000+0  16733-3 0  9993
2 48996  87.9081 224.8192 0002254  91.3886 268.7504 13.16593763242315
ONEWEB-0279             
1 48997U 21060AG  26187.65298576 -.00000010  00000+0 -59590-4 0  9992
2 48997  87.9083 224.9060 0001914 100.4215 259.7132 13.16593929242189
ONEWEB-0280             
1 48998U 21060AH  26187.59202959 -.00000031  00000+0 -11377-3 0  9999
2 48998  87.9082 224.9225 0002394  99.0421 261.0981 13.16594545242113
ONEWEB-0281             
1 48999U 21060AJ  26188.66152561 -.00000024  00000+0 -95875-4 0  9990
2 48999  87.9082 224.7054 0002146  93.7077 266.4299 13.16593576242322
ONEWEB-0282             
1 49000U 21060AK  26188.08363638  .00000054  00000+0  10806-3 0  9990
2 49000  87.9078 224.8280 0002140  99.0693 261.0680 13.16594409242220
ONEWEB-0283             
1 49001U 21060AL  26188.07254268  .00000048  00000+0  92160-4 0  9995
2 49001  87.9078 224.8297 0001968  98.8153 261.3201 13.16593034242230
ONEWEB-0284             
1 49002U 21060AM  26187.61024007  .00000026  00000+0  35284-4 0  9991
2 49002  87.9080 224.9153 0002387  95.6619 264.4784 13.16593553242151
ONEWEB-0285             
1 49075U 21075A   26188.41560458  .00000242  00000+0  63781-3 0  9993
2 49075  87.8964 346.6396 0001810  87.0634 273.0702 13.12444483237865
ONEWEB-0286             
1 49076U 21075B   26188.39766389 -.00000306  00000+0 -88459-3 0  9994
2 49076  87.8952 346.6581 0001816  87.6624 272.4712 13.12442710237214
ONEWEB-0287             
1 49077U 21075C   26188.44160012  .00000018  00000+0  12766-4 0  9999
2 49077  87.9136   1.8356 0002061  80.5509 279.5856 13.17647767236295
ONEWEB-0288             
1 49078U 21075D   26188.37407955 -.00000017  00000+0 -82034-4 0  9998
2 49078  87.8961 346.6409 0002022  89.0690 271.0670 13.12440872237837
ONEWEB-0289             
1 49079U 21075E   26188.48033176 -.00001949  00000+0 -50571-2 0  9995
2 49079  87.9144   1.8462 0002130  99.1236 261.0137 13.17624438236876
ONEWEB-0290             
1 49080U 21075F   26188.75717029  .00000090  00000+0  19787-3 0  9992
2 49080  87.9146   1.7633 0002293  99.8189 260.3202 13.17650477236320
ONEWEB-0291             
1 49081U 21075G   26188.43823588 -.00000014  00000+0 -70143-4 0  9998
2 49081  87.9139   1.8327 0002211  87.2352 272.9033 13.17646449236276
ONEWEB-0293             
1 49082U 21075H   26188.46354540  .00000043  00000+0  76477-4 0  9995
2 49082  87.9139   1.8310 0002018  93.3947 266.7415 13.17649625236300
ONEWEB-0294             
1 49083U 21075J   26188.38086077 -.00000226  00000+0 -66379-3 0  9998
2 49083  87.8962 346.6436 0002138  99.3384 260.7986 13.12441896237221
ONEWEB-0295             
1 49084U 21075K   26188.46270742  .00000046  00000+0  84091-4 0  9992
2 49084  87.9138   1.8350 0002097  84.8985 275.2386 13.17649494236260
ONEWEB-0296             
1 49085U 21075L   26188.43677666  .00000380  00000+0  10218-2 0  9995
2 49085  87.8969 346.6406 0002088  86.2577 273.8791 13.12442119237239
ONEWEB-0297             
1 49086U 21075M   26187.93359835 -.00000366  00000+0 -10516-2 0  9992
2 49086  87.8950 346.7489 0001895  91.1986 268.9360 13.12442807237776
ONEWEB-0298             
1 49087U 21075N   26188.46707680  .00000045  00000+0  83425-4 0  9990
2 49087  87.9139   1.8326 0001782  88.3215 271.8120 13.17648504236294
ONEWEB-0299             
1 49088U 21075P   26188.46860367  .00000053  00000+0  10379-3 0  9999
2 49088  87.9150   1.8141 0001911  85.8790 274.2560 13.17647313236277
ONEWEB-0300             
1 49089U 21075Q   26188.38339815 -.00000293  00000+0 -85026-3 0  9999
2 49089  87.8964 346.6407 0001509  88.2868 271.8433 13.12441656237855
ONEWEB-0301             
1 49090U 21075R   26188.36730881  .00000178  00000+0  46021-3 0  9999
2 49090  87.8961 346.6418 0001493  92.5441 267.5858 13.12441933237214
ONEWEB-0302             
1 49091U 21075S   26188.42999580  .00000443  00000+0  11951-2 0  9998
2 49091  87.8963 346.6420 0002151  95.9543 264.1831 13.12441550237200
ONEWEB-0304             
1 49092U 21075T   26188.44328858 -.00000199  00000+0 -54637-3 0  9994
2 49092  87.9138   1.8400 0001960  86.8731 273.2625 13.17648198236246
ONEWEB-0305             
1 49093U 21075U   26188.43654001 -.00000072  00000+0 -21939-3 0  9995
2 49093  87.9145   1.8271 0002077  80.8390 279.2977 13.17649927236276
ONEWEB-0308             
1 49094U 21075V   26188.42321684  .00000348  00000+0  93252-3 0  9994
2 49094  87.8962 346.6352 0001836  93.1142 267.0197 13.12442601237216
